[{"OBJECT_NAME":"STARLINK-11455 [DTC]","OBJECT_ID":"2024-254B","EPOCH":"2026-03-09T11:36:36.501984","MEAN_MOTION":15.70898274,"ECCENTRICITY":0.00037881,"INCLINATION":43.0003,"RA_OF_ASC_NODE":224.6913,"ARG_OF_PERICENTER":291.4936,"MEAN_ANOMALY":68.5528,"EPHEMERIS_TYPE":0,"CLASSIFICATION_TYPE":"U","NORAD_CAT_ID":62463,"ELEMENT_SET_NO":999,"REV_AT_EPOCH":6936,"BSTAR":0.0022500333,"MEAN_MOTION_DOT":0.00299687,"MEAN_MOTION_DDOT":0},{"OBJECT_NAME":"UNKNOWN","OBJECT_ID":"","EPOCH":"2026-03-09T00:48:08.930880","MEAN_MOTION":15.7514874,"ECCENTRICITY":0.0019769,"INCLINATION":97.6379,"RA_OF_ASC_NODE":94.4029,"ARG_OF_PERICENTER":114.9652,"MEAN_ANOMALY":245.3669,"EPHEMERIS_TYPE":0,"CLASSIFICATION_TYPE":"U","NORAD_CAT_ID":89161,"ELEMENT_SET_NO":999,"REV_AT_EPOCH":56197,"BSTAR":0.0042433,"MEAN_MOTION_DOT":0.00691245,"MEAN_MOTION_DDOT":0}]
